{"type": "FeatureCollection", "features": [ {"type": "Feature", "properties": {"norad_id": 58662, "name": "TIANMU-1 21", "group": "weather", "lat": -43.498176290948805, "lon": 113.98948082708178, "alt_km": 477.0642673186312, "timestamp": "2025-12-19T10:50:00.835049+00:00", "meta": {"OBJECT_NAME": "TIANMU-1 21", "OBJECT_ID": "2023-208C", "EPOCH": "2025-12-18T22:28:54.857856", "MEAN_MOTION": 15.31679826, "ECCENTRICITY": 0.00061063, "INCLINATION": 97.4379, "RA_OF_ASC_NODE": 106.3519, "ARG_OF_PERICENTER": 234.0014, "MEAN_ANOMALY": 126.0662, "EPHEMERIS_TYPE": 0, "CLASSIFICATION_TYPE": "U", "NORAD_CAT_ID": 58662, "ELEMENT_SET_NO": 999, "REV_AT_EPOCH": 10994, "BSTAR": 0.00030218049, "MEAN_MOTION_DOT": 9.171e-05, "MEAN_MOTION_DDOT": 0}, "tle": {"line1": "1 58662U 23208C   25352.93674604  .00009171  00000+0  30218-3 0  9992", "line2": "2 58662  97.4379 106.3519 0006106 234.0014 126.0662 15.31679826109944"}}, "geometry": {"type": "Point", "coordinates": [113.98948082708178, -43.498176290948805]}}, {"type": "Feature", "properties": {"norad_id": 58663, "name": "TIANMU-1 22", "group": "weather", "lat": 36.831495448396105, "lon": -69.8527292790301, "alt_km": 480.73835707588114, "timestamp": "2025-12-19T10:50:00.835059+00:00", "meta": {"OBJECT_NAME": "TIANMU-1 22", "OBJECT_ID": "2023-208D", "EPOCH": "2025-12-18T23:12:24.329664", "MEAN_MOTION": 15.27706543, "ECCENTRICITY": 0.00027088, "INCLINATION": 97.4387, "RA_OF_ASC_NODE": 104.0483, "ARG_OF_PERICENTER": 254.0461, "MEAN_ANOMALY": 106.048, "EPHEMERIS_TYPE": 0, "CLASSIFICATION_TYPE": "U", "NORAD_CAT_ID": 58663, "ELEMENT_SET_NO": 999, "REV_AT_EPOCH": 10978, "BSTAR": 0.00025344704, "MEAN_MOTION_DOT": 6.788e-05, "MEAN_MOTION_DDOT": 0}, "tle": {"line1": "1 58663U 23208D   25352.96694826  .00006788  00000+0  25345-3 0  9990", "line2": "2 58663  97.4387 104.0483 0002708 254.0461 106.0480 15.27706543109781"}}, "geometry": {"type": "Point", "coordinates": [-69.8527292790301, 36.831495448396105]}}, {"type": "Feature", "properties": {"norad_id": 58700, "name": "TIANMU-1 15", "group": "weather", "lat": -14.947115915852867, "lon": -7.109789237872227, "alt_km": 495.5479436933774, "timestamp": "2025-12-19T10:50:00.835069+00:00", "meta": {"OBJECT_NAME": "TIANMU-1 15", "OBJECT_ID": "2024-004A", "EPOCH": "2025-12-18T22:57:11.844576", "MEAN_MOTION": 15.24486339, "ECCENTRICITY": 0.00059556, "INCLINATION": 97.4621, "RA_OF_ASC_NODE": 174.4025, "ARG_OF_PERICENTER": 264.0795, "MEAN_ANOMALY": 95.9764, "EPHEMERIS_TYPE": 0, "CLASSIFICATION_TYPE": "U", "NORAD_CAT_ID": 58700, "ELEMENT_SET_NO": 999, "REV_AT_EPOCH": 10829, "BSTAR": 0.00022442134, "MEAN_MOTION_DOT": 5.445e-05, "MEAN_MOTION_DDOT": 0}, "tle": {"line1": "1 58700U 24004A   25352.95638709  .00005445  00000+0  22442-3 0  9998", "line2": "2 58700  97.4621 174.4025 0005955 264.0795  95.9764 15.24486339108296"}}, "geometry": {"type": "Point", "coordinates": [-7.109789237872227, -14.947115915852867]}}, {"type": "Feature", "properties": {"norad_id": 58701, "name": "TIANMU-1 16", "group": "weather", "lat": -79.6691253776055, "lon": -139.79464375990744, "alt_km": 496.6769402949367, "timestamp": "2025-12-19T10:50:00.835080+00:00", "meta": {"OBJECT_NAME": "TIANMU-1 16", "OBJECT_ID": "2024-004B", "EPOCH": "2025-12-18T22:35:38.700096", "MEAN_MOTION": 15.2451294, "ECCENTRICITY": 0.00043181, "INCLINATION": 97.4561, "RA_OF_ASC_NODE": 173.7711, "ARG_OF_PERICENTER": 268.2512, "MEAN_ANOMALY": 91.8231, "EPHEMERIS_TYPE": 0, "CLASSIFICATION_TYPE": "U", "NORAD_CAT_ID": 58701, "ELEMENT_SET_NO": 999, "REV_AT_EPOCH": 10829, "BSTAR": 0.00022252659, "MEAN_MOTION_DOT": 5.401e-05, "MEAN_MOTION_DDOT": 0}, "tle": {"line1": "1 58701U 24004B   25352.94142014  .00005401  00000+0  22253-3 0  9999", "line2": "2 58701  97.4561 173.7711 0004318 268.2512  91.8231 15.24512940108291"}}, "geometry": {"type": "Point", "coordinates": [-139.79464375990744, -79.6691253776055]}}, {"type": "Feature", "properties": {"norad_id": 58702, "name": "TIANMU-1 17", "group": "weather", "lat": 2.6229890345704607, "lon": 174.34817614504033, "alt_km": 495.0285398113956, "timestamp": "2025-12-19T10:50:00.835090+00:00", "meta": {"OBJECT_NAME": "TIANMU-1 17", "OBJECT_ID": "2024-004C", "EPOCH": "2025-12-18T23:47:43.281024", "MEAN_MOTION": 15.24557398, "ECCENTRICITY": 0.00034999, "INCLINATION": 97.4594, "RA_OF_ASC_NODE": 174.2342, "ARG_OF_PERICENTER": 269.9861, "MEAN_ANOMALY": 90.0975, "EPHEMERIS_TYPE": 0, "CLASSIFICATION_TYPE": "U", "NORAD_CAT_ID": 58702, "ELEMENT_SET_NO": 999, "REV_AT_EPOCH": 10829, "BSTAR": 0.00023230524, "MEAN_MOTION_DOT": 5.649e-05, "MEAN_MOTION_DDOT": 0}, "tle": {"line1": "1 58702U 24004C   25352.99147316  .00005649  00000+0  23231-3 0  9996", "line2": "2 58702  97.4594 174.2342 0003499 269.9861  90.0975 15.24557398108290"}}, "geometry": {"type": "Point", "coordinates": [174.34817614504033, 2.6229890345704607]}}, {"type": "Feature", "properties": {"norad_id": 58703, "name": "TIANMU-1 18", "group": "weather", "lat": 81.57439235829996, "lon": 57.11044199454518, "alt_km": 486.6649237014317, "timestamp": "2025-12-19T10:50:00.835100+00:00", "meta": {"OBJECT_NAME": "TIANMU-1 18", "OBJECT_ID": "2024-004D", "EPOCH": "2025-12-18T23:23:46.639104", "MEAN_MOTION": 15.24542677, "ECCENTRICITY": 0.00028728, "INCLINATION": 97.4611, "RA_OF_ASC_NODE": 174.4143, "ARG_OF_PERICENTER": 268.4592, "MEAN_ANOMALY": 91.6316, "EPHEMERIS_TYPE": 0, "CLASSIFICATION_TYPE": "U", "NORAD_CAT_ID": 58703, "ELEMENT_SET_NO": 999, "REV_AT_EPOCH": 10829, "BSTAR": 0.00022073647, "MEAN_MOTION_DOT": 5.361e-05, "MEAN_MOTION_DDOT": 0}, "tle": {"line1": "1 58703U 24004D   25352.97484536  .00005361  00000+0  22074-3 0  9998", "line2": "2 58703  97.4611 174.4143 0002872 268.4592  91.6316 15.24542677108291"}}, "geometry": {"type": "Point", "coordinates": [57.11044199454518, 81.57439235829996]}}, {"type": "Feature", "properties": {"norad_id": 58990, "name": "INSAT-3DS", "group": "weather", "lat": -0.03894411496319458, "lon": -27.095030970736605, "alt_km": 35783.763822489345, "timestamp": "2025-12-19T10:50:00.835112+00:00", "meta": {"OBJECT_NAME": "INSAT-3DS", "OBJECT_ID": "2024-033A", "EPOCH": "2025-12-18T15:23:52.092960", "MEAN_MOTION": 1.00272396, "ECCENTRICITY": 0.00010988, "INCLINATION": 0.0507, "RA_OF_ASC_NODE": 110.1825, "ARG_OF_PERICENTER": 160.7703, "MEAN_ANOMALY": 129.6153, "EPHEMERIS_TYPE": 0, "CLASSIFICATION_TYPE": "U", "NORAD_CAT_ID": 58990, "ELEMENT_SET_NO": 999, "REV_AT_EPOCH": 4525, "BSTAR": 0, "MEAN_MOTION_DOT": -1.31e-06, "MEAN_MOTION_DDOT": 0}, "tle": {"line1": "1 58990U 24033A   25352.64157515 -.00000131  00000+0  00000+0 0  9998", "line2": "2 58990   0.0507 110.1825 0001098 160.7703 129.6153  1.00272396 45258"}}, "geometry": {"type": "Point", "coordinates": [-27.095030970736605, -0.03894411496319458]}}, {"type": "Feature", "properties": {"norad_id": 59051, "name": "METEOR-M2 4", "group": "weather", "lat": -33.98437917667862, "lon": -43.83577003951391, "alt_km": 818.6892447570808, "timestamp": "2025-12-19T10:50:00.835123+00:00", "meta": {"OBJECT_NAME": "METEOR-M2 4", "OBJECT_ID": "2024-039A", "EPOCH": "2025-12-18T23:10:38.004960", "MEAN_MOTION": 14.22402231, "ECCENTRICITY": 0.00067055, "INCLINATION": 98.6775, "RA_OF_ASC_NODE": 309.7772, "ARG_OF_PERICENTER": 340.2951, "MEAN_ANOMALY": 19.7967, "EPHEMERIS_TYPE": 0, "CLASSIFICATION_TYPE": "U", "NORAD_CAT_ID": 59051, "ELEMENT_SET_NO": 999, "REV_AT_EPOCH": 9364, "BSTAR": 2.4145632e-05, "MEAN_MOTION_DOT": 1e-07, "MEAN_MOTION_DDOT": 0}, "tle": {"line1": "1 59051U 24039A   25352.96571765  .00000010  00000+0  24146-4 0  9992", "line2": "2 59051  98.6775 309.7772 0006705 340.2951  19.7967 14.22402231 93643"}}, "geometry": {"type": "Point", "coordinates": [-43.83577003951391, -33.98437917667862]}}, {"type": "Feature", "properties": {"norad_id": 60133, "name": "GOES 19", "group": "weather", "lat": -9.284922327408538e-06, "lon": 175.59769398305335, "alt_km": 35790.03030356332, "timestamp": "2025-12-19T10:50:00.835135+00:00", "meta": {"OBJECT_NAME": "GOES 19", "OBJECT_ID": "2024-119A", "EPOCH": "2025-12-18T19:47:09.819744", "MEAN_MOTION": 1.00271449, "ECCENTRICITY": 0.00010616, "INCLINATION": 0.0083, "RA_OF_ASC_NODE": 96.7753, "ARG_OF_PERICENTER": 227.3458, "MEAN_ANOMALY": 345.1641, "EPHEMERIS_TYPE": 0, "CLASSIFICATION_TYPE": "U", "NORAD_CAT_ID": 60133, "ELEMENT_SET_NO": 999, "REV_AT_EPOCH": 515, "BSTAR": 0, "MEAN_MOTION_DOT": -2.23e-06, "MEAN_MOTION_DDOT": 0}, "tle": {"line1": "1 60133U 24119A   25352.82441921 -.00000223  00000+0  00000+0 0  9994", "line2": "2 60133   0.0083  96.7753 0001061 227.3458 345.1641  1.00271449  5155"}}, "geometry": {"type": "Point", "coordinates": [175.59769398305335, -9.284922327408538e-06]}}, {"type": "Feature", "properties": {"norad_id": 65815, "name": "FENGYUN 3H", "group": "weather", "lat": 35.09008055676215, "lon": 119.04211696081147, "alt_km": 822.902367555349, "timestamp": "2025-12-19T10:50:00.835146+00:00", "meta": {"OBJECT_NAME": "FENGYUN 3H", "OBJECT_ID": "2025-219A", "EPOCH": "2025-12-18T22:19:03.322848", "MEAN_MOTION": 14.19906308, "ECCENTRICITY": 7.043e-05, "INCLINATION": 98.6592, "RA_OF_ASC_NODE": 292.386, "ARG_OF_PERICENTER": 103.3503, "MEAN_ANOMALY": 256.7752, "EPHEMERIS_TYPE": 0, "CLASSIFICATION_TYPE": "U", "NORAD_CAT_ID": 65815, "ELEMENT_SET_NO": 999, "REV_AT_EPOCH": 1180, "BSTAR": 4.3690553e-05, "MEAN_MOTION_DOT": 5e-07, "MEAN_MOTION_DDOT": 0}, "tle": {"line1": "1 65815U 25219A   25352.92989957  .00000050  00000+0  43691-4 0  9990", "line2": "2 65815  98.6592 292.3860 0000704 103.3503 256.7752 14.19906308 11807"}}, "geometry": {"type": "Point", "coordinates": [119.04211696081147, 35.09008055676215]}}]}